NORAD_CAT_ID,OBJECT_NAME,OBJECT_TYPE,EPOCH,MEAN_MOTION,ECCENTRICITY,INCLINATION,RA_OF_ASC_NODE,ARG_OF_PERICENTER,MEAN_ANOMALY,BSTAR,MEAN_MOTION_DOT,MEAN_MOTION_DDOT,TLE_LINE0,TLE_LINE1,TLE_LINE2,SEMIMAJOR_AXIS,PERIOD,APOGEE,PERIGEE,DECAYED
53706.0,STARLINK-4716,PAYLOAD,2022-11-20 06:00:00,15.452262300000005,0.0001042,53.2169,257.5541,83.3555,315.7202,-0.026041,-0.01148823,0.0,0 STARLINK-4716,1 53706U 22107G   22324.25001157 -.01148823  00000-0 -26041-1 0  9990,2 53706  53.2169 257.5541 0001042  83.3555 315.7202 15.45226230 12096,6808.85,93.19,431.425,430.006,0.0
53706.0,STARLINK-4716,PAYLOAD,2022-11-20 14:00:01,15.44421299,0.0001134,53.2171,255.9714,76.3083,17.5768,-0.027089,-0.01161332,0.0,0 STARLINK-4716,1 53706U 22107G   22324.58334491 -.01161332  00000-0 -27089-1 0  9999,2 53706  53.2171 255.9714 0001134  76.3083  17.5768 15.44421299  1300,6811.215999999999,93.239,433.853,432.309,0.0
53706.0,STARLINK-4716,PAYLOAD,2022-11-20 22:00:00,15.43593646,0.0001295,53.2175,254.3924,78.8208,68.9054,-0.027363,-0.01142202,0.0,0 STARLINK-4716,1 53706U 22107G   22324.91667824 -.01142202  00000-0 -27363-1 0  9995,2 53706  53.2175 254.3924 0001295  78.8208  68.9054 15.43593646  1307,6813.651,93.289,436.398,434.633,0.0
53706.0,STARLINK-4716,PAYLOAD,2022-11-21 08:00:01,15.4257818,0.0001133,53.217,252.4226,94.2881,209.3542,-0.028371,-0.01143972,0.0,0 STARLINK-4716,1 53706U 22107G   22325.33334491 -.01143972  00000-0 -28371-1 0  9998,2 53706  53.2170 252.4226 0001133  94.2881 209.3542 15.42578180 12261,6816.64,93.35,439.278,437.733,0.0
53706.0,STARLINK-4716,PAYLOAD,2022-11-21 14:00:01,15.41974864,0.0001212,53.2173,251.24,88.5774,163.8799,-0.029228,-0.01153878,0.0,0 STARLINK-4716,1 53706U 22107G   22325.58334491 -.01153878  00000-0 -29228-1 0  9993,2 53706  53.2173 251.2400 0001212  88.5774 163.8799 15.41974864  1309,6818.418000000002,93.387,441.11,439.457,0.0
53706.0,STARLINK-4716,PAYLOAD,2022-11-21 22:00:00,15.41191463,0.0001213,53.2171,249.6667,85.0023,218.3398,-0.031126,-0.01193087,0.0,0 STARLINK-4716,1 53706U 22107G   22325.91667824 -.01193087  00000-0 -31126-1 0  9995,2 53706  53.2171 249.6667 0001213  85.0023 218.3398 15.41191463  1300,6820.729,93.434,443.421,441.766,0.0
53706.0,STARLINK-4716,PAYLOAD,2022-11-22 08:00:01,15.40228534,0.0001209,53.2167,247.7045,68.1174,27.4464,-0.034224,-0.01263048,0.0,0 STARLINK-4716,1 53706U 22107G   22326.33334491 -.01263048  00000-0 -34224-1 0  9990,2 53706  53.2167 247.7045 0001209  68.1174  27.4464 15.40228534 12414,6823.571,93.493,446.261,444.611,0.0
53706.0,STARLINK-4716,PAYLOAD,2022-11-22 14:00:01,15.3952685,0.0001141,53.2174,246.5261,71.1553,331.1387,-0.031445,-0.01144805,0.0,0 STARLINK-4716,1 53706U 22107G   22326.58335648 -.01144805  00000-0 -31445-1 0  9993,2 53706  53.2174 246.5261 0001141  71.1553 331.1387 15.39526850  1304,6825.644,93.535,448.288,446.731,0.0
53706.0,STARLINK-4716,PAYLOAD,2022-11-22 22:00:00,15.38726352,0.0001307,53.2172,244.9589,74.3926,15.7972,-0.032817,-0.01161995,0.0,0 STARLINK-4716,1 53706U 22107G   22326.91667824 -.01161995  00000-0 -32817-1 0  9997,2 53706  53.2172 244.9589 0001307  74.3926  15.7972 15.38726352 12507,6828.012,93.584,450.769,448.984,0.0
53706.0,STARLINK-4716,PAYLOAD,2022-11-23 14:00:01,15.37081303,0.000131,53.2174,241.8297,73.8953,109.304,-0.033818,-0.01136959,0.0,0 STARLINK-4716,1 53706U 22107G   22327.58334491 -.01136959  00000-0 -33818-1 0  9996,2 53706  53.2174 241.8297 0001310  73.8953 109.3040 15.37081303  1300,6832.882,93.684,455.643,453.852,0.0
53706.0,STARLINK-4716,PAYLOAD,2022-11-23 22:00:00,15.36289528,0.0001303,53.2173,240.2686,92.1012,136.1206,-0.035694,-0.01166687,0.0,0 STARLINK-4716,1 53706U 22107G   22327.91667824 -.01166687  00000-0 -35694-1 0  9997,2 53706  53.2173 240.2686 0001303  92.1012 136.1206 15.36289528  1306,6835.23,93.732,457.986,456.204,0.0
53706.0,STARLINK-4716,PAYLOAD,2022-11-24 08:00:01,15.35257831,0.0001169,53.2169,238.3202,67.7564,305.3894,-0.036245,-0.01147637,0.0,0 STARLINK-4716,1 53706U 22107G   22328.33334491 -.01147637  00000-0 -36245-1 0  9992,2 53706  53.2169 238.3202 0001169  67.7564 305.3894 15.35257831 12725,6838.292,93.795,460.956,459.357,0.0
53706.0,STARLINK-4716,PAYLOAD,2022-11-24 14:00:01,15.34638161,0.0001126,53.2174,237.1508,78.8272,236.5402,-0.036485,-0.01133755,0.0,0 STARLINK-4716,1 53706U 22107G   22328.58334491 -.01133755  00000-0 -36485-1 0  9991,2 53706  53.2174 237.1508 0001126  78.8272 236.5402 15.34638161  1309,6840.132,93.833,462.768,461.227,0.0
53706.0,STARLINK-4716,PAYLOAD,2022-11-24 22:00:00,15.33854397,0.0001145,53.2172,235.5956,95.4678,261.9847,-0.03889,-0.01174592,0.0,0 STARLINK-4716,1 53706U 22107G   22328.91667824 -.01174592  00000-0 -38890-1 0  9993,2 53706  53.2172 235.5956 0001145  95.4678 261.9847 15.33854397  1307,6842.462,93.881,465.111,463.544,0.0
53706.0,STARLINK-4716,PAYLOAD,2022-11-25 08:00:01,15.3281462,0.0001324,53.2168,233.6542,72.0632,66.6503,-0.039053,-0.01144097,0.0,0 STARLINK-4716,1 53706U 22107G   22329.33334491 -.01144097  00000-0 -39053-1 0  9990,2 53706  53.2168 233.6542 0001324  72.0632  66.6503 15.32814620 12879,6845.556,93.945,468.328,466.515,0.0
53706.0,STARLINK-4716,PAYLOAD,2022-11-25 14:00:01,15.32204497,0.0001261,53.2171,232.4894,72.2065,6.5241,-0.039828,-0.01144451,0.0,0 STARLINK-4716,1 53706U 22107G   22329.58334491 -.01144451  00000-0 -39828-1 0  9991,2 53706  53.2171 232.4894 0001261  72.2065   6.5241 15.32204497  1305,6847.374,93.982,470.102,468.375,0.0
53706.0,STARLINK-4716,PAYLOAD,2022-11-25 22:00:00,15.31417895,0.0001296999999999,53.217,230.94,99.9267,17.9558,-0.042199,-0.01179466,0.0,0 STARLINK-4716,1 53706U 22107G   22329.91667824 -.01179466  00000-0 -42199-1 0  9996,2 53706  53.2170 230.9400 0001297  99.9267  17.9558 15.31417895  1303,6849.718000000003,94.031,472.471,470.695,0.0
53706.0,STARLINK-4716,PAYLOAD,2022-11-26 06:00:00,15.3058834,0.0001358,53.2165,229.3929,78.9735,77.1052,-0.04246,-0.01158369,0.0,0 STARLINK-4716,1 53706U 22107G   22330.25001157 -.01158369  00000-0 -42460-1 0  9996,2 53706  53.2165 229.3929 0001358  78.9735  77.1052 15.30588340 13011,6852.193,94.081,474.98800000000006,473.127,0.0
53706.0,STARLINK-4716,PAYLOAD,2022-11-26 14:00:01,15.29757773,0.0001339,53.2173,227.8447,83.8455,109.4538,-0.042661,-0.01136208,0.0,0 STARLINK-4716,1 53706U 22107G   22330.58334491 -.01136208  00000-0 -42661-1 0  9993,2 53706  53.2173 227.8447 0001339  83.8455 109.4538 15.29757773  1304,6854.6730000000025,94.133,477.456,475.62,0.0
53706.0,STARLINK-4716,PAYLOAD,2022-11-26 22:00:00,15.28968722,0.0001428,53.2169,226.3016,104.9623,124.5569,-0.045094,-0.01184704,0.0,0 STARLINK-4716,1 53706U 22107G   22330.91667824 -.01184704  00000-0 -45094-1 0  9996,2 53706  53.2169 226.3016 0001428 104.9623 124.5569 15.28968722  1305,6857.031,94.181,479.875,477.917,0.0
53706.0,STARLINK-4716,PAYLOAD,2022-11-27 14:00:01,15.27314707,0.0001207,53.2173,223.2177,92.4472,206.618,-0.045857,-0.01132929,0.0,0 STARLINK-4716,1 53706U 22107G   22331.58334491 -.01132929  00000-0 -45857-1 0  9990,2 53706  53.2173 223.2177 0001207  92.4472 206.6180 15.27314707  1300,6861.981,94.283,484.674,483.017,0.0
53706.0,STARLINK-4716,PAYLOAD,2022-11-27 22:00:00,15.2652734,0.0001262,53.2168,221.6803,108.8024,223.5482,-0.048571,-0.01183986,0.0,0 STARLINK-4716,1 53706U 22107G   22331.91667824 -.01183986  00000-0 -48571-1 0  9991,2 53706  53.2168 221.6803 0001262 108.8024 223.5482 15.26527340  1309,6864.34,94.332,487.071,485.339,0.0
53706.0,STARLINK-4716,PAYLOAD,2022-11-28 14:00:01,15.24894596,0.0001133,53.2166,218.6081,78.7004,317.3185,-0.050691,-0.01176604,0.0,0 STARLINK-4716,1 53706U 22107G   22332.58334491 -.01176604  00000-0 -50691-1 0  9991,2 53706  53.2166 218.6081 0001133  78.7004 317.3185 15.24894596 13371,6869.239000000001,94.433,491.882,490.326,0.0
53706.0,STARLINK-4716,PAYLOAD,2022-11-28 22:00:01,15.24085734,0.0001255,53.2169,217.0763,101.0646,325.3812,-0.052295,-0.01184052,0.0,0 STARLINK-4716,1 53706U 22107G   22332.91668981 -.01184052  00000-0 -52295-1 0  9990,2 53706  53.2169 217.0763 0001255 101.0646 325.3812 15.24085734  1303,6871.669,94.483,494.397,492.672,0.0
53706.0,STARLINK-4716,PAYLOAD,2022-11-29 14:00:01,15.22452471,0.0001284999999999,53.2167,214.0154,85.5795,38.6678,-0.054512,-0.01176158,0.0,0 STARLINK-4716,1 53706U 22107G   22333.58335648 -.01176158  00000-0 -54512-1 0  9997,2 53706  53.2167 214.0154 0001285  85.5795  38.6678 15.22452471 13521,6876.583000000001,94.584,499.331,497.564,0.0
53706.0,STARLINK-4716,PAYLOAD,2022-11-29 22:00:00,15.21638141,0.0001411,53.2168,212.4895,100.1115,51.5044,-0.055786,-0.01175051,0.0,0 STARLINK-4716,1 53706U 22107G   22333.91667824 -.01175051  00000-0 -55786-1 0  9993,2 53706  53.2168 212.4895 0001411 100.1115  51.5044 15.21638141  1300,6879.036,94.635,501.872,499.93,0.0
53706.0,STARLINK-4716,PAYLOAD,2022-11-30 14:00:01,15.199929999999998,0.0001463,53.2172,209.4396,108.4049,95.2149,-0.057263,-0.01151127,0.0,0 STARLINK-4716,1 53706U 22107G   22334.58335648 -.01151127  00000-0 -57263-1 0  9993,2 53706  53.2172 209.4396 0001463 108.4049  95.2149 15.19993000  1307,6883.999,94.737,506.871,504.857,0.0
53706.0,STARLINK-4716,PAYLOAD,2022-11-30 22:00:00,15.19176894,0.0001462,53.2174,207.92,105.2258,122.8291,-0.058404,-0.0114675,0.0,0 STARLINK-4716,1 53706U 22107G   22334.91667824 -.01146750  00000-0 -58404-1 0  9998,2 53706  53.2174 207.9200 0001462 105.2258 122.8291 15.19176894 13720,6886.464,94.788,509.336,507.322,0.0
53706.0,STARLINK-4716,PAYLOAD,2022-12-01 14:00:01,15.17549913,0.0001332,53.2174,204.8812,96.8841,177.2355,-0.061282,-0.01147655,0.0,0 STARLINK-4716,1 53706U 22107G   22335.58334491 -.01147655  00000-0 -61282-1 0  9996,2 53706  53.2174 204.8812 0001332  96.8841 177.2355 15.17549913  1304,6891.385,94.89,514.168,512.332,0.0
